ASIASAT 6               
1 40141U 14052A   20058.38523060 -.00000366  00000-0  00000+0 0  9999
2 40141   0.0615 285.5439 0000604  73.6613  56.0273  1.00269261 20086
OPTUS 10                
1 40146U 14054A   20057.89042847 -.00000153  00000-0  00000+0 0  9994
2 40146   0.0609 140.9724 0002075 187.9992 303.7837  1.00270140 20039
MEASAT-3B               
1 40147U 14054B   20058.10049398 -.00000246  00000-0  00000+0 0  9991
2 40147   0.0370 307.0295 0002603  46.5908 290.4255  1.00271345 20087
LUCH (OLYMP)            
1 40258U 14058A   20058.71137101  .00000123  00000-0  00000+0 0  9998
2 40258   0.0075 202.8940 0001076 181.9825  67.7968  0.99690204 19862
HIMAWARI-8              
1 40267U 14060A   20057.88737522 -.00000281  00000-0  00000-0 0  9998
2 40267   0.0208 169.3323 0000984 184.2583 262.6860  1.00271185 19779
IRNSS-1C                
1 40269U 14061A   20058.37825174 -.00000165  00000-0  00000+0 0  9997
2 40269   1.8641 186.3744 0017788  13.4905 175.9746  1.00270459 19747
INTELSAT 30 (IS-30)     
1 40271U 14062A   20057.41707578 -.00000157  00000-0  00000-0 0  9994
2 40271   0.0186 127.2538 0002022 353.3959  90.1271  1.00270405 19674
ARSAT 1                 
1 40272U 14062B   20057.58382587 -.00000266  00000-0  00000+0 0  9992
2 40272   0.0253 220.3740 0001125 102.9824 330.8850  1.00271593 19791
EXPRESS-AM6             
1 40277U 14064A   20057.79813285  .00000092  00000-0  00000+0 0  9992
2 40277   0.0434 297.6256 0000318 143.2819  55.4956  1.00274018 19580
GSAT-16                 
1 40332U 14078A   20058.08566247  .00000080  00000-0  00000-0 0  9993
2 40332   0.0762 273.8143 0003967 171.9002 156.5233  1.00273804 19046
DIRECTV 14              
1 40333U 14078B   20057.98307302 -.00000130  00000-0  00000-0 0  9994
2 40333   0.0178 108.1937 0001166 274.5091  28.2247  1.00271116 19040
YAMAL 401               
1 40345U 14082A   20058.37973475 -.00000232  00000-0  00000+0 0  9998
2 40345   0.0143 130.0760 0000648 260.3805 352.8590  1.00271025 19331
ASTRA 2G                
1 40364U 14089A   20057.79316039  .00000144  00000-0  00000-0 0  9990
2 40364   0.0296  50.9804 0003704 331.6214  87.2021  1.00270947 18881
FENGYUN 2G              
1 40367U 14090A   20058.30537862 -.00000306  00000-0  00000-0 0  9993
2 40367   1.8209  96.2650 0003628 330.1362 299.7358  1.00272426 18957
MUOS-3                  
1 40374U 15002A   20058.35879812 -.00000131  00000-0  00000+0 0  9999
2 40374   2.9294 344.3688 0051292 179.9077 106.0333  1.00273262 18739
INMARSAT 5-F2           
1 40384U 15005A   20057.92008868 -.00000290  00000-0  00000-0 0  9997
2 40384   0.0169 134.5047 0000176 337.7944 320.1213  1.00271993 17903
ABS-3A                  
1 40424U 15010A   20057.93046976 -.00000032  00000-0  00000-0 0  9995
2 40424   0.0183 110.8752 0001508 149.4501 227.8747  1.00270720 18320
EUTELSAT 115 WEST B     
1 40425U 15010B   20058.05172771 -.00000029  00000-0  00000-0 0  9999
2 40425   0.0044 291.4364 0000047 276.3971 212.2150  1.00272410 18313
EXPRESS-AM7             
1 40505U 15012A   20058.33729876  .00000146  00000-0  00000+0 0  9993
2 40505   0.0180 122.2656 0002563 211.4607 344.3280  1.00275535 18276
IRNSS-1D                
1 40547U 15018A   20057.70470854 -.00000283  00000-0  00000-0 0  9998
2 40547  28.7009 279.1178 0018481 178.0570  64.1715  1.00266113 17904
BEIDOU 17               
1 40549U 15019A   20057.89599463 -.00000151  00000-0  00000-0 0  9993
2 40549  53.2170 322.4855 0034298 193.3983  56.4803  1.00255996 17992
THOR 7                  
1 40613U 15022A   20058.09077340 -.00000013  00000-0  00000-0 0  9994
2 40613   0.0134 189.6119 0002483 148.0170 210.7602  1.00272156 17748
TURKMENALEM52E/MONACOSAT
1 40617U 15023A   20058.08505182  .00000098  00000-0  00000-0 0  9990
2 40617   0.0189 148.0269 0001857 187.7627 263.2543  1.00273951 17750
DIRECTV 15              
1 40663U 15026A   20058.05417031 -.00000107  00000-0  00000-0 0  9998
2 40663   0.0111 123.0207 0000252 335.2167 334.7664  1.00270473 17437
SKY MEXICO-1            
1 40664U 15026B   20057.88035522 -.00000239  00000-0  00000-0 0  9996
2 40664   0.0083 157.7503 0001972 194.5182  42.0418  1.00271221 17452
METEOSAT-11 (MSG-4)     
1 40732U 15034A   20058.09077340 -.00000007  00000-0  00000-0 0  9992
2 40732   0.5557 229.8546 0000423  31.9016 287.5023  1.00264442 16956
STAR ONE C4             
1 40733U 15034B   20058.13250816 -.00000269  00000-0  00000-0 0  9999
2 40733   0.0275  41.3312 0002581 316.6571 136.1262  1.00273240 16942
WGS F7 (USA 263)        
1 40746U 15036A   20058.39674573  .00000013  00000-0  00000+0 0  9998
2 40746   0.0127 137.5479 0000181 265.3473  71.6205  1.00270582 16798
INTELSAT 34 (IS-34)     
1 40874U 15039A   20058.44821545 -.00000289  00000-0  00000+0 0  9998
2 40874   0.0193 133.0853 0000449  93.6934  35.8254  1.00271575 16587
EUTELSAT 8 WEST B       
1 40875U 15039B   20057.92951017 -.00000071  00000-0  00000-0 0  9999
2 40875   0.0675  13.2529 0002037 351.5965 117.9652  1.00271977 16587
GSAT-6                  
1 40880U 15041A   20057.15782105 -.00000164  00000-0  00000-0 0  9996
2 40880   0.0845 261.7216 0007003  23.7625   8.8705  1.00271932 16559
INMARSAT 5-F3           
1 40882U 15042A   20057.84979862  .00000045  00000-0  00000+0 0  9999
2 40882   0.0109 142.5258 0000041  78.5782  60.5405  1.00272368 16469
MUOS-4                  
1 40887U 15044A   20057.94591052 -.00000096  00000-0  00000+0 0  9995
2 40887   3.0805 341.1874 0058200   1.0984 229.5007  1.00272618 16481
TJS-1                   
1 40892U 15046A   20058.31618657 -.00000161  00000-0  10000-3 0  9994
2 40892   0.0965 283.7747 0005257  50.9030  90.6574  1.00275680 16477
EXPRESS-AM8             
1 40895U 15048A   20058.01229922 -.00000117  00000-0  00000-0 0  9996
2 40895   0.0397 283.2898 0001227 179.5157  43.8992  1.00271453 16290
BEIDOU 20               
1 40938U 15053A   20058.09333924 -.00000085  00000-0  00000-0 0  9990
2 40938  52.7836 285.4987 0047551 182.5523 174.6691  1.00254044 16278
SKY MUSTER (NBN1A)      
1 40940U 15054A   20057.95908315 -.00000284  00000-0  00000-0 0  9991
2 40940   0.0166 157.8606 0001555 176.1393 307.7693  1.00269076 16183
ARSAT 2                 
1 40941U 15054B   20058.14624491 -.00000229  00000-0  00000-0 0  9993
2 40941   0.0209 212.0325 0001461 121.0522 154.9838  1.00271536 16247
MORELOS 3               
1 40946U 15056A   20057.90857354 -.00000047  00000-0  00000-0 0  9997
2 40946   4.9937 328.3540 0003140 353.8355  47.9697  1.00271738 16202
APSTAR 9                
1 40982U 15059A   20058.22264986 -.00000271  00000-0  00000-0 0  9998
2 40982   0.0686 284.5921 0000456 154.5238 299.5326  1.00270757 16045
TURKSAT 4B              
1 40984U 15060A   20058.11075059  .00000110  00000-0  00000-0 0  9992
2 40984   0.0150 163.6087 0002015 175.2309 267.4257  1.00270394 16027
CHINASAT 2C (ZX 2C)     
1 41021U 15063A   20058.28516336 -.00000328  00000-0  00000-0 0  9996
2 41021   0.0283 278.9360 0001425  96.7690 346.9362  1.00271449 15936
GSAT-15                 
1 41028U 15065A   20057.80615854 -.00000264  00000-0  00000-0 0  9996
2 41028   0.0515 292.9366 0000610  14.5659 232.2899  1.00273279 15734
BADR-7 (ARABSAT-6B)     
1 41029U 15065B   20057.79272421  .00000139  00000-0  00000+0 0  9993
2 41029   0.0516 263.8194 0003364 350.0681 213.5502  1.00272052 15825
LAOSAT 1                
1 41034U 15067A   20057.84856624 -.00000349  00000-0  00000-0 0  9995
2 41034   0.0163 116.5644 0002452 189.9537 283.6268  1.00267762 15750
TELSTAR 12V             
1 41036U 15068A   20057.78452404 -.00000125  00000-0  00000-0 0  9991
2 41036   0.0172 227.6758 0001912 114.4118  81.4080  1.00271698 15535
CHINASAT 1C (ZX 1C)     
1 41103U 15073A   20058.22688306 -.00000154  00000-0  00000-0 0  9996
2 41103   1.3552  93.6055 0002709 237.5946 348.4209  1.00270929 15588
ELEKTRO-L 2             
1 41105U 15074A   20058.44873834 -.00000100  00000-0  00000+0 0  9995
2 41105   0.9369  99.1911 0001487 297.9340 357.1384  1.00273446 15446
COSMOS 2513             
1 41121U 15075A   20058.38799542 -.00000143  00000-0  00000+0 0  9997
2 41121   0.0431 114.6419 0002007 232.3992  29.5622  1.00273927 15524
EXPRESS-AMU1            
1 41191U 15082A   20058.08182409  .00000151  00000-0  00000-0 0  9996
2 41191   0.0175 133.3746 0002834 194.6407 253.8800  1.00271485 15422
GAOFEN 4                
1 41194U 15083A   20057.68222215 -.00000341  00000-0  00000-0 0  9997
2 41194   0.0798 284.9764 0003250 271.1093 311.1757  1.00272924 15400
BELINTERSAT-1           
1 41238U 16001A   20058.11075059  .00000102  00000-0  00000-0 0  9992
2 41238   0.0156  85.5410 0000401  79.2056  82.9901  1.00272931 15177
IRNSS-1E                
1 41241U 16003A   20057.02025000 -.00000292  00000-0  00000+0 0  9998
2 41241  28.9786  98.0820 0020339 186.6028 349.5696  1.00265539 15109
EUTELSAT 9B             
1 41310U 16005A   20057.57402369  .00000056  00000-0  00000-0 0  9992
2 41310   0.0546  77.9063 0005163 231.2326  62.3822  1.00275738 15026
SES-9                   
1 41380U 16013A   20058.02451009 -.00000350  00000-0  00000-0 0  9992
2 41380   0.0490 287.5088 0001219 111.2585 234.6718  1.00271231 14356
EUTELSAT 65 WEST A      
1 41382U 16014A   20057.77457914 -.00000282  00000-0  00000-0 0  9991
2 41382   0.0536  13.5163 0001732 322.5699  33.6379  1.00272806 14453
IRNSS-1F                
1 41384U 16015A   20058.08112622  .00000153  00000-0  00000-0 0  9999
2 41384   2.3155 225.8938 0021210 177.0142 175.2177  1.00264519 14602
BEIDOU IGSO-6           
1 41434U 16021A   20058.37628249 -.00000125  00000-0  00000+0 0  9990
2 41434  56.8847  61.6975 0039680 211.7819 114.8350  1.00281757 14407
IRNSS-1G                
1 41469U 16027A   20057.95690226 -.00000341  00000-0  00000-0 0  9992
2 41469   2.3452 228.6817 0003947 190.9928 210.6179  1.00272315 14111
